NORAD_CAT_ID,OBJECT_NAME,OBJECT_TYPE,EPOCH,MEAN_MOTION,ECCENTRICITY,INCLINATION,RA_OF_ASC_NODE,ARG_OF_PERICENTER,MEAN_ANOMALY,BSTAR,MEAN_MOTION_DOT,MEAN_MOTION_DDOT,TLE_LINE0,TLE_LINE1,TLE_LINE2,SEMIMAJOR_AXIS,PERIOD,APOGEE,PERIGEE,DECAYED
50809.0,STARLINK-3232,PAYLOAD,2024-08-09 04:43:35,15.08841489,0.0001554,53.2154,231.5886,102.3358,257.7809,3.8575e-05,3.26e-06,0.0,0 STARLINK-3232,1 50809U 22001G   24222.19694191  .00000326  00000-0  38575-4 0  9992,2 50809  53.2154 231.5886 0001554 102.3358 257.7809 15.08841489144649,6917.876,95.437,540.816,538.666,0.0
50809.0,STARLINK-3232,PAYLOAD,2024-08-09 06:18:58,15.08840739,0.0001539,53.2153,231.291,101.5528,258.5637,2.1881e-05,6e-07,0.0,0 STARLINK-3232,1 50809U 22001G   24222.26318211  .00000060  00000-0  21881-4 0  9993,2 50809  53.2153 231.2910 0001539 101.5528 258.5637 15.08840739143370,6917.878,95.438,540.808,538.678,0.0
50809.0,STARLINK-3232,PAYLOAD,2024-08-10 04:34:23,15.08839535,0.0001543,53.2164,227.1299,103.2835,256.8329,-1.2878e-05,-4.93e-06,0.0,0 STARLINK-3232,1 50809U 22001G   24223.19054806 -.00000493  00000-0 -12878-4 0  9991,2 50809  53.2164 227.1299 0001543 103.2835 256.8329 15.08839535144799,6917.882,95.438,540.814,538.679,0.0
50809.0,STARLINK-3232,PAYLOAD,2024-08-10 07:45:09,15.08842813,0.0001479,53.2159,226.5347,97.9687,262.1473,7.2001e-06,-1.73e-06,0.0,0 STARLINK-3232,1 50809U 22001G   24223.32302505 -.00000173  00000-0  72001-5 0  9997,2 50809  53.2159 226.5347 0001479  97.9687 262.1473 15.08842813143536,6917.872,95.437,540.76,538.714,0.0
50809.0,STARLINK-3232,PAYLOAD,2024-08-11 09:11:18,15.08852288,0.0001445,53.2156,221.7762,96.0521,264.0636,0.00021851,3.192e-05,0.0,0 STARLINK-3232,1 50809U 22001G   24224.38285488  .00003192  00000-0  21851-3 0  9992,2 50809  53.2156 221.7762 0001445  96.0521 264.0636 15.08852288144979,6917.843,95.437,540.707,538.708,0.0
50809.0,STARLINK-3232,PAYLOAD,2024-08-12 04:15:57,15.08840823,0.0001919,53.2174,218.1916,71.7372,288.3828,3.367e-05,2.48e-06,0.0,0 STARLINK-3232,1 50809U 22001G   24225.17774475  .00000248  00000-0  33670-4 0  9991,2 50809  53.2174 218.1916 0001919  71.7372 288.3828 15.08840823145098,6917.878,95.438,541.07,538.415,0.0
50809.0,STARLINK-3232,PAYLOAD,2024-08-12 09:02:04,15.08876142,0.0002425,53.2172,217.3101,71.0282,289.0973,0.00036407,5.516e-05,0.0,0 STARLINK-3232,1 50809U 22001G   24225.37643803  .00005516  00000-0  36407-3 0  9996,2 50809  53.2172 217.3101 0002425  71.0282 289.0973 15.08876142145125,6917.77,95.435,541.312,537.957,0.0
50809.0,STARLINK-3232,PAYLOAD,2024-08-12 23:20:33,15.0885467,0.0001232,53.2167,214.6369,112.9255,247.1867,3.2845e-05,2.35e-06,0.0,0 STARLINK-3232,1 50809U 22001G   24225.97261483  .00000235  00000-0  32845-4 0  9998,2 50809  53.2167 214.6369 0001232 112.9255 247.1867 15.08854670143931,6917.836,95.437,540.553,538.848,0.0
50809.0,STARLINK-3232,PAYLOAD,2024-08-13 05:42:06,15.08852285,0.0001481,53.2153,213.4482,109.2215,250.8938,6.8896e-05,8.09e-06,0.0,0 STARLINK-3232,1 50809U 22001G   24226.23757336  .00000809  00000-0  68896-4 0  9997,2 50809  53.2153 213.4482 0001481 109.2215 250.8938 15.08852285145257,6917.843,95.437,540.732,538.683,0.0
50809.0,STARLINK-3232,PAYLOAD,2024-08-13 08:52:52,15.08852388,0.0001846,53.2161,212.8509,102.7088,257.4111,6.9108e-05,8.12e-06,0.0,0 STARLINK-3232,1 50809U 22001G   24226.37005110  .00000812  00000-0  69108-4 0  9999,2 50809  53.2161 212.8509 0001846 102.7088 257.4111 15.08852388143999,6917.843,95.437,540.985,538.43,0.0
50809.0,STARLINK-3232,PAYLOAD,2024-08-13 16:49:49,15.08828201,0.0001914,53.2155,211.3651,91.2496,268.8715,-0.00022787,-3.912e-05,0.0,0 STARLINK-3232,1 50809U 22001G   24226.70126599 -.00003912  00000-0 -22787-3 0  9998,2 50809  53.2155 211.3651 0001914  91.2496 268.8715 15.08828201145327,6917.916,95.438,541.106,538.457,0.0
50809.0,STARLINK-3232,PAYLOAD,2024-08-14 03:57:31,15.08822886,0.0001497,53.2153,209.2822,111.5867,248.5285,-0.00017287,-3.037e-05,0.0,0 STARLINK-3232,1 50809U 22001G   24227.16495131 -.00003037  00000-0 -17287-3 0  9997,2 50809  53.2153 209.2822 0001497 111.5867 248.5285 15.08822886144111,6917.933,95.439,540.833,538.762,0.0
50809.0,STARLINK-3232,PAYLOAD,2024-08-15 05:23:42,15.08832364,0.0001185,53.2164,204.53,98.9998,261.1128,1.814e-05,1e-08,0.0,0 STARLINK-3232,1 50809U 22001G   24228.22479710  .00000001  00000-0  18140-4 0  9996,2 50809  53.2164 204.5300 0001185  98.9998 261.1128 15.08832364145557,6917.904,95.438,540.589,538.949,0.0
50809.0,STARLINK-3232,PAYLOAD,2024-08-15 14:56:00,15.0884782,0.0001183,53.2164,202.7455,94.4145,265.6982,-0.00010055,-1.888e-05,0.0,0 STARLINK-3232,1 50809U 22001G   24228.62223014 -.00001888  00000-0 -10055-3 0  9996,2 50809  53.2164 202.7455 0001183  94.4145 265.6982 15.08847820144336,6917.856,95.437,540.54,538.903,0.0
50809.0,STARLINK-3232,PAYLOAD,2024-08-16 05:14:29,15.08845453,0.0001119,53.2147,200.0675,93.0462,267.0658,0.0004838,7.421e-05,0.0,0 STARLINK-3232,1 50809U 22001G   24229.21839701  .00007421  00000-0  48380-3 0  9997,2 50809  53.2147 200.0675 0001119  93.0462 267.0658 15.08845453145706,6917.864,95.437,540.503,538.955,0.0
50809.0,STARLINK-3232,PAYLOAD,2024-08-17 03:29:53,15.08849212,0.0001285,53.2151,195.9066,102.7246,257.3889,0.00013869,1.921e-05,0.0,0 STARLINK-3232,1 50809U 22001G   24230.14575268  .00001921  00000-0  13869-3 0  9999,2 50809  53.2151 195.9066 0001285 102.7246 257.3889 15.08849212145849,6917.852,95.437,540.606,538.828,0.0
50809.0,STARLINK-3232,PAYLOAD,2024-08-18 03:20:39,15.08847801,0.0001283,53.2151,191.4439,90.012,270.1019,-5.4915e-05,-1.162e-05,0.0,0 STARLINK-3232,1 50809U 22001G   24231.13935083 -.00001162  00000-0 -54915-4 0  9991,2 50809  53.2151 191.4439 0001283  90.0120 270.1019 15.08847801145998,6917.857,95.437,540.609,538.834,0.0
50809.0,STARLINK-3232,PAYLOAD,2024-08-18 06:31:26,15.08844718,0.0001409,53.2153,190.8482,104.2056,255.9092,0.00012734,1.74e-05,0.0,0 STARLINK-3232,1 50809U 22001G   24231.27183158  .00001740  00000-0  12734-3 0  9996,2 50809  53.2153 190.8482 0001409 104.2056 255.9092 15.08844718144734,6917.866,95.437,540.706,538.756,0.0
50809.0,STARLINK-3232,PAYLOAD,2024-08-19 04:46:50,15.08846288,0.00015,53.2162,186.6844,85.9114,274.2049,0.00011477,1.539e-05,0.0,0 STARLINK-3232,1 50809U 22001G   24232.19918996  .00001539  00000-0  11477-3 0  9993,2 50809  53.2162 186.6844 0001500  85.9114 274.2049 15.08846288146159,6917.861,95.437,540.764,538.688,0.0
50809.0,STARLINK-3232,PAYLOAD,2024-08-19 06:22:12,15.08852318,0.0001523,53.2162,186.3824,108.3541,251.7617,-4.6303e-06,-3.62e-06,0.0,0 STARLINK-3232,1 50809U 22001G   24232.26542534 -.00000362  00000-0 -46303-5 0  9995,2 50809  53.2162 186.3824 0001523 108.3541 251.7617 15.08852318144883,6917.843,95.437,540.761,538.654,0.0
50809.0,STARLINK-3232,PAYLOAD,2024-08-20 03:02:14,15.08841184,0.000146,53.2159,182.5227,104.0077,256.1077,7.7151e-05,9.4e-06,0.0,0 STARLINK-3232,1 50809U 22001G   24233.12655275  .00000940  00000-0  77151-4 0  9992,2 50809  53.2159 182.5227 0001460 104.0077 256.1077 15.08841184146296,6917.877,95.437,540.752,538.732,0.0
50809.0,STARLINK-3232,PAYLOAD,2024-08-20 06:13:00,15.08845211,0.0001511,53.2155,181.9257,105.5045,254.6114,0.00013538,1.868e-05,0.0,0 STARLINK-3232,1 50809U 22001G   24233.25903048  .00001868  00000-0  13538-3 0  9998,2 50809  53.2155 181.9257 0001511 105.5045 254.6114 15.08845211145037,6917.864,95.437,540.775,538.684,0.0
50809.0,STARLINK-3232,PAYLOAD,2024-08-21 02:53:00,15.08848672,0.0001524,53.2154,178.0589,116.6405,243.4743,9.3949e-05,1.208e-05,0.0,0 STARLINK-3232,1 50809U 22001G   24234.12014773  .00001208  00000-0  93949-4 0  9996,2 50809  53.2154 178.0589 0001524 116.6405 243.4743 15.08848672145160,6917.854,95.437,540.773,538.665,0.0
50809.0,STARLINK-3232,PAYLOAD,2024-08-21 20:22:15,15.08838073,0.0001497,53.2154,174.7883,94.2228,265.8936,4.1708e-05,3.76e-06,0.0,0 STARLINK-3232,1 50809U 22001G   24234.84879568  .00000376  00000-0  41708-4 0  9997,2 50809  53.2154 174.7883 0001497  94.2228 265.8936 15.08838073146553,6917.886,95.438,540.787,538.716,0.0
